COSMOS 2251 DEB         
1 34276U 93036LW  26073.60329605  .00003227  00000+0  70785-3 0  9995
2 34276  74.0211 270.5662 0021371  30.7824  26.8403 14.57894735899311
COSMOS 2251 DEB         
1 34297U 93036MT  26073.56305214  .00000343  00000+0  12512-3 0  9993
2 34297  74.0466 115.6139 0016919 171.0025 345.8110 14.36717628893830
COSMOS 2251 DEB         
1 34301U 93036MX  26072.45330067  .00035978  00000+0  36615-2 0  9991
2 34301  74.0045 345.5795 0004494  41.3346  78.8383 14.90566344897499
COSMOS 2251 DEB         
1 34302U 93036MY  26073.42055492  .00002353  00000+0  73059-3 0  9991
2 34302  74.1800 315.7416 0078270 145.7048 267.0600 14.39849919890403
COSMOS 2251 DEB         
1 34303U 93036MZ  26073.36359880  .00004702  00000+0  95234-3 0  9992
2 34303  74.0039 114.1793 0137664 231.5613 143.4915 14.55697428892953
COSMOS 2251 DEB         
1 34304U 93036NA  26073.11122163  .00003801  00000+0  11369-2 0  9993
2 34304  74.0144 313.9337 0126279  70.1481  58.0077 14.38687049886103
COSMOS 2251 DEB         
1 34307U 93036ND  26072.96282704  .00000723  00000+0  66715-3 0  9992
2 34307  74.0542 166.7209 0392868 337.5408 137.1776 13.54485815840972
COSMOS 2251 DEB         
1 34313U 93036NK  26073.48689386  .00535860  00000+0  76359-2 0  9993
2 34313  73.9597 108.6602 0018078 277.9503  81.9660 15.54232844904704
COSMOS 2251 DEB         
1 34314U 93036NL  26073.31411523  .00001308  00000+0  62015-3 0  9992
2 34314  74.0053 144.9311 0105513 230.9269 244.0217 14.17680288879554
COSMOS 2251 DEB         
1 34316U 93036NN  26073.25694949  .00023854  00000+0  20878-2 0  9992
2 34316  74.0640 152.9152 0012178 252.1970 107.7887 14.96582932905764
COSMOS 2251 DEB         
1 34317U 93036NP  26073.44849736  .00000839  00000+0  72104-3 0  9998
2 34317  73.9217 244.7508 0336503 216.9199 171.9190 13.65263263848719
COSMOS 2251 DEB         
1 34321U 93036NT  26072.75362760  .00002165  00000+0  55923-3 0  9997
2 34321  74.0317 345.2995 0013856  96.3133 297.3930 14.50516556898064
COSMOS 2251 DEB         
1 34323U 93036NV  26073.60717139  .00015553  00000+0  21257-2 0  9995
2 34323  73.9530 302.3825 0054974 323.7515  64.2303 14.77519939897953
COSMOS 2251 DEB         
1 34325U 93036NX  26073.61951174  .00004420  00000+0  23482-2 0  9990
2 34325  73.8727  30.8444 0189635  30.3345 147.3352 14.05014972868051
COSMOS 2251 DEB         
1 34327U 93036NZ  26073.03470627  .00013586  00000+0  13288-2 0  9993
2 34327  73.9957 348.5669 0032228 147.9980 228.8931 14.91971320908688
COSMOS 2251 DEB         
1 34340U 93036PN  26073.51759397  .00002214  00000+0  15731-2 0  9996
2 34340  74.0788 154.6396 0289989 241.9989 134.2322 13.79925026855347
