[{"OBJECT_NAME":"COSMOS 2251 DEB","OBJECT_ID":"1993-036LW","EPOCH":"2026-03-14T14:28:44.778720","MEAN_MOTION":14.57894735,"ECCENTRICITY":0.00213714,"INCLINATION":74.0211,"RA_OF_ASC_NODE":270.5662,"ARG_OF_PERICENTER":30.7824,"MEAN_ANOMALY":26.8403,"EPHEMERIS_TYPE":0,"CLASSIFICATION_TYPE":"U","NORAD_CAT_ID":34276,"ELEMENT_SET_NO":999,"REV_AT_EPOCH":89931,"BSTAR":0.00070784589,"MEAN_MOTION_DOT":3.227e-5,"MEAN_MOTION_DDOT":0},{"OBJECT_NAME":"COSMOS 2251 DEB","OBJECT_ID":"1993-036MT","EPOCH":"2026-03-14T13:30:47.704896","MEAN_MOTION":14.36717628,"ECCENTRICITY":0.00169199,"INCLINATION":74.0466,"RA_OF_ASC_NODE":115.6139,"ARG_OF_PERICENTER":171.0025,"MEAN_ANOMALY":345.811,"EPHEMERIS_TYPE":0,"CLASSIFICATION_TYPE":"U","NORAD_CAT_ID":34297,"ELEMENT_SET_NO":999,"REV_AT_EPOCH":89383,"BSTAR":0.00012512126,"MEAN_MOTION_DOT":3.43e-6,"MEAN_MOTION_DDOT":0},{"OBJECT_NAME":"COSMOS 2251 DEB","OBJECT_ID":"1993-036MX","EPOCH":"2026-03-13T10:52:45.177888","MEAN_MOTION":14.90566344,"ECCENTRICITY":0.00044942,"INCLINATION":74.0045,"RA_OF_ASC_NODE":345.5795,"ARG_OF_PERICENTER":41.3346,"MEAN_ANOMALY":78.8383,"EPHEMERIS_TYPE":0,"CLASSIFICATION_TYPE":"U","NORAD_CAT_ID":34301,"ELEMENT_SET_NO":999,"REV_AT_EPOCH":89749,"BSTAR":0.0036615395,"MEAN_MOTION_DOT":0.00035978,"MEAN_MOTION_DDOT":0},{"OBJECT_NAME":"COSMOS 2251 DEB","OBJECT_ID":"1993-036MY","EPOCH":"2026-03-14T10:05:35.945088","MEAN_MOTION":14.39849919,"ECCENTRICITY":0.00782701,"INCLINATION":74.18,"RA_OF_ASC_NODE":315.7416,"ARG_OF_PERICENTER":145.7048,"MEAN_ANOMALY":267.06,"EPHEMERIS_TYPE":0,"CLASSIFICATION_TYPE":"U","NORAD_CAT_ID":34302,"ELEMENT_SET_NO":999,"REV_AT_EPOCH":89040,"BSTAR":0.00073059166,"MEAN_MOTION_DOT":2.353e-5,"MEAN_MOTION_DDOT":0},{"OBJECT_NAME":"COSMOS 2251 DEB","OBJECT_ID":"1993-036MZ","EPOCH":"2026-03-14T08:43:34.936320","MEAN_MOTION":14.55697428,"ECCENTRICITY":0.01376649,"INCLINATION":74.0039,"RA_OF_ASC_NODE":114.1793,"ARG_OF_PERICENTER":231.5613,"MEAN_ANOMALY":143.4915,"EPHEMERIS_TYPE":0,"CLASSIFICATION_TYPE":"U","NORAD_CAT_ID":34303,"ELEMENT_SET_NO":999,"REV_AT_EPOCH":89295,"BSTAR":0.0009523441,"MEAN_MOTION_DOT":4.702e-5,"MEAN_MOTION_DDOT":0},{"OBJECT_NAME":"COSMOS 2251 DEB","OBJECT_ID":"1993-036NA","EPOCH":"2026-03-14T02:40:09.548832","MEAN_MOTION":14.38687049,"ECCENTRICITY":0.01262795,"INCLINATION":74.0144,"RA_OF_ASC_NODE":313.9337,"ARG_OF_PERICENTER":70.1481,"MEAN_ANOMALY":58.0077,"EPHEMERIS_TYPE":0,"CLASSIFICATION_TYPE":"U","NORAD_CAT_ID":34304,"ELEMENT_SET_NO":999,"REV_AT_EPOCH":88610,"BSTAR":0.0011368845,"MEAN_MOTION_DOT":3.801e-5,"MEAN_MOTION_DDOT":0},{"OBJECT_NAME":"COSMOS 2251 DEB","OBJECT_ID":"1993-036ND","EPOCH":"2026-03-13T23:06:28.256256","MEAN_MOTION":13.54485815,"ECCENTRICITY":0.03928683,"INCLINATION":74.0542,"RA_OF_ASC_NODE":166.7209,"ARG_OF_PERICENTER":337.5408,"MEAN_ANOMALY":137.1776,"EPHEMERIS_TYPE":0,"CLASSIFICATION_TYPE":"U","NORAD_CAT_ID":34307,"ELEMENT_SET_NO":999,"REV_AT_EPOCH":84097,"BSTAR":0.00066715493,"MEAN_MOTION_DOT":7.23e-6,"MEAN_MOTION_DDOT":0},{"OBJECT_NAME":"COSMOS 2251 DEB","OBJECT_ID":"1993-036NK","EPOCH":"2026-03-14T11:41:07.629504","MEAN_MOTION":15.54232844,"ECCENTRICITY":0.00180782,"INCLINATION":73.9597,"RA_OF_ASC_NODE":108.6602,"ARG_OF_PERICENTER":277.9503,"MEAN_ANOMALY":81.966,"EPHEMERIS_TYPE":0,"CLASSIFICATION_TYPE":"U","NORAD_CAT_ID":34313,"ELEMENT_SET_NO":999,"REV_AT_EPOCH":90470,"BSTAR":0.0076358714,"MEAN_MOTION_DOT":0.0053586,"MEAN_MOTION_DDOT":0},{"OBJECT_NAME":"COSMOS 2251 DEB","OBJECT_ID":"1993-036NL","EPOCH":"2026-03-14T07:32:19.555872","MEAN_MOTION":14.17680288,"ECCENTRICITY":0.01055132,"INCLINATION":74.0053,"RA_OF_ASC_NODE":144.9311,"ARG_OF_PERICENTER":230.9269,"MEAN_ANOMALY":244.0217,"EPHEMERIS_TYPE":0,"CLASSIFICATION_TYPE":"U","NORAD_CAT_ID":34314,"ELEMENT_SET_NO":999,"REV_AT_EPOCH":87955,"BSTAR":0.0006201453,"MEAN_MOTION_DOT":1.308e-5,"MEAN_MOTION_DDOT":0},{"OBJECT_NAME":"COSMOS 2251 DEB","OBJECT_ID":"1993-036NN","EPOCH":"2026-03-14T06:10:00.435936","MEAN_MOTION":14.96582932,"ECCENTRICITY":0.00121788,"INCLINATION":74.064,"RA_OF_ASC_NODE":152.9152,"ARG_OF_PERICENTER":252.197,"MEAN_ANOMALY":107.7887,"EPHEMERIS_TYPE":0,"CLASSIFICATION_TYPE":"U","NORAD_CAT_ID":34316,"ELEMENT_SET_NO":999,"REV_AT_EPOCH":90576,"BSTAR":0.0020878289,"MEAN_MOTION_DOT":0.00023854,"MEAN_MOTION_DDOT":0},{"OBJECT_NAME":"COSMOS 2251 DEB","OBJECT_ID":"1993-036NP","EPOCH":"2026-03-14T10:45:50.171904","MEAN_MOTION":13.65263263,"ECCENTRICITY":0.03365033,"INCLINATION":73.9217,"RA_OF_ASC_NODE":244.7508,"ARG_OF_PERICENTER":216.9199,"MEAN_ANOMALY":171.919,"EPHEMERIS_TYPE":0,"CLASSIFICATION_TYPE":"U","NORAD_CAT_ID":34317,"ELEMENT_SET_NO":999,"REV_AT_EPOCH":84871,"BSTAR":0.00072103515,"MEAN_MOTION_DOT":8.39e-6,"MEAN_MOTION_DDOT":0},{"OBJECT_NAME":"COSMOS 2251 DEB","OBJECT_ID":"1993-036NT","EPOCH":"2026-03-13T18:05:13.424640","MEAN_MOTION":14.50516556,"ECCENTRICITY":0.00138569,"INCLINATION":74.0317,"RA_OF_ASC_NODE":345.2995,"ARG_OF_PERICENTER":96.3133,"MEAN_ANOMALY":297.393,"EPHEMERIS_TYPE":0,"CLASSIFICATION_TYPE":"U","NORAD_CAT_ID":34321,"ELEMENT_SET_NO":999,"REV_AT_EPOCH":89806,"BSTAR":0.00055923417,"MEAN_MOTION_DOT":2.165e-5,"MEAN_MOTION_DDOT":0},{"OBJECT_NAME":"COSMOS 2251 DEB","OBJECT_ID":"1993-036NV","EPOCH":"2026-03-14T14:34:19.608096","MEAN_MOTION":14.77519939,"ECCENTRICITY":0.00549742,"INCLINATION":73.953,"RA_OF_ASC_NODE":302.3825,"ARG_OF_PERICENTER":323.7515,"MEAN_ANOMALY":64.2303,"EPHEMERIS_TYPE":0,"CLASSIFICATION_TYPE":"U","NORAD_CAT_ID":34323,"ELEMENT_SET_NO":999,"REV_AT_EPOCH":89795,"BSTAR":0.0021257297,"MEAN_MOTION_DOT":0.00015553,"MEAN_MOTION_DDOT":0},{"OBJECT_NAME":"COSMOS 2251 DEB","OBJECT_ID":"1993-036NX","EPOCH":"2026-03-14T14:52:05.814336","MEAN_MOTION":14.05014972,"ECCENTRICITY":0.01896355,"INCLINATION":73.8727,"RA_OF_ASC_NODE":30.8444,"ARG_OF_PERICENTER":30.3345,"MEAN_ANOMALY":147.3352,"EPHEMERIS_TYPE":0,"CLASSIFICATION_TYPE":"U","NORAD_CAT_ID":34325,"ELEMENT_SET_NO":999,"REV_AT_EPOCH":86805,"BSTAR":0.0023481823,"MEAN_MOTION_DOT":4.42e-5,"MEAN_MOTION_DDOT":0},{"OBJECT_NAME":"COSMOS 2251 DEB","OBJECT_ID":"1993-036NZ","EPOCH":"2026-03-14T00:49:58.621728","MEAN_MOTION":14.9197132,"ECCENTRICITY":0.00322284,"INCLINATION":73.9957,"RA_OF_ASC_NODE":348.5669,"ARG_OF_PERICENTER":147.998,"MEAN_ANOMALY":228.8931,"EPHEMERIS_TYPE":0,"CLASSIFICATION_TYPE":"U","NORAD_CAT_ID":34327,"ELEMENT_SET_NO":999,"REV_AT_EPOCH":90868,"BSTAR":0.0013287977,"MEAN_MOTION_DOT":0.00013586,"MEAN_MOTION_DDOT":0},{"OBJECT_NAME":"COSMOS 2251 DEB","OBJECT_ID":"1993-036PN","EPOCH":"2026-03-14T12:25:20.119008","MEAN_MOTION":13.79925026,"ECCENTRICITY":0.02899891,"INCLINATION":74.0788,"RA_OF_ASC_NODE":154.6396,"ARG_OF_PERICENTER":241.9989,"MEAN_ANOMALY":134.2322,"EPHEMERIS_TYPE":0,"CLASSIFICATION_TYPE":"U","NORAD_CAT_ID":34340,"ELEMENT_SET_NO":999,"REV_AT_EPOCH":85534,"BSTAR":0.0015731457,"MEAN_MOTION_DOT":2.214e-5,"MEAN_MOTION_DDOT":0}]
